[{"OBJECT_NAME":"SL-14 R/B","OBJECT_ID":"1986-006B","EPOCH":"2026-03-03T15:58:04.213056","MEAN_MOTION":14.8680569,"ECCENTRICITY":0.00751857,"INCLINATION":82.5234,"RA_OF_ASC_NODE":265.4087,"ARG_OF_PERICENTER":293.1762,"MEAN_ANOMALY":66.1546,"EPHEMERIS_TYPE":0,"CLASSIFICATION_TYPE":"U","NORAD_CAT_ID":16496,"ELEMENT_SET_NO":999,"REV_AT_EPOCH":14831,"BSTAR":8.1026029e-5,"MEAN_MOTION_DOT":7.85e-6,"MEAN_MOTION_DDOT":0},{"OBJECT_NAME":"COSMOS 1743","OBJECT_ID":"1986-034A","EPOCH":"2026-03-03T11:27:28.661184","MEAN_MOTION":15.58030499,"ECCENTRICITY":0.00022538,"INCLINATION":82.5291,"RA_OF_ASC_NODE":80.3487,"ARG_OF_PERICENTER":335.7563,"MEAN_ANOMALY":24.3586,"EPHEMERIS_TYPE":0,"CLASSIFICATION_TYPE":"U","NORAD_CAT_ID":16719,"ELEMENT_SET_NO":999,"REV_AT_EPOCH":17928,"BSTAR":0.0004711321,"MEAN_MOTION_DOT":0.00035452,"MEAN_MOTION_DDOT":0},{"OBJECT_NAME":"SL-14 R/B","OBJECT_ID":"1986-046B","EPOCH":"2026-03-03T13:02:20.675904","MEAN_MOTION":14.85583365,"ECCENTRICITY":0.0021655,"INCLINATION":82.4782,"RA_OF_ASC_NODE":85.9912,"ARG_OF_PERICENTER":246.8752,"MEAN_ANOMALY":113.0182,"EPHEMERIS_TYPE":0,"CLASSIFICATION_TYPE":"U","NORAD_CAT_ID":16792,"ELEMENT_SET_NO":999,"REV_AT_EPOCH":12549,"BSTAR":6.7753e-5,"MEAN_MOTION_DOT":6.12e-6,"MEAN_MOTION_DDOT":0},{"OBJECT_NAME":"SL-14 R/B","OBJECT_ID":"1986-055B","EPOCH":"2026-03-03T16:24:41.357664","MEAN_MOTION":14.85636306,"ECCENTRICITY":0.00187055,"INCLINATION":82.5212,"RA_OF_ASC_NODE":132.3189,"ARG_OF_PERICENTER":356.8629,"MEAN_ANOMALY":117.9735,"EPHEMERIS_TYPE":0,"CLASSIFICATION_TYPE":"U","NORAD_CAT_ID":16882,"ELEMENT_SET_NO":999,"REV_AT_EPOCH":11847,"BSTAR":6.7818848e-5,"MEAN_MOTION_DOT":6.13e-6,"MEAN_MOTION_DDOT":0},{"OBJECT_NAME":"AJISAI (EGS)","OBJECT_ID":"1986-061A","EPOCH":"2026-03-03T22:19:58.429632","MEAN_MOTION":12.44515541,"ECCENTRICITY":0.00112537,"INCLINATION":50.0081,"RA_OF_ASC_NODE":111.0577,"ARG_OF_PERICENTER":272.2043,"MEAN_ANOMALY":144.3226,"EPHEMERIS_TYPE":0,"CLASSIFICATION_TYPE":"U","NORAD_CAT_ID":16908,"ELEMENT_SET_NO":999,"REV_AT_EPOCH":46728,"BSTAR":0.0001655434,"MEAN_MOTION_DOT":-7.4e-7,"MEAN_MOTION_DDOT":0},{"OBJECT_NAME":"COSMOS 1812","OBJECT_ID":"1987-003A","EPOCH":"2026-03-04T01:10:35.809248","MEAN_MOTION":16.26408876,"ECCENTRICITY":0.0008403,"INCLINATION":82.4701,"RA_OF_ASC_NODE":202.0527,"ARG_OF_PERICENTER":285.1252,"MEAN_ANOMALY":74.911,"EPHEMERIS_TYPE":0,"CLASSIFICATION_TYPE":"U","NORAD_CAT_ID":17295,"ELEMENT_SET_NO":999,"REV_AT_EPOCH":14357,"BSTAR":0.0007982,"MEAN_MOTION_DOT":0.02533764,"MEAN_MOTION_DDOT":-1.224e-6},{"OBJECT_NAME":"SL-14 R/B","OBJECT_ID":"1987-024B","EPOCH":"2026-03-03T12:16:43.054752","MEAN_MOTION":14.86125276,"ECCENTRICITY":0.0016686,"INCLINATION":82.5253,"RA_OF_ASC_NODE":98.572,"ARG_OF_PERICENTER":282.2797,"MEAN_ANOMALY":77.6551,"EPHEMERIS_TYPE":0,"CLASSIFICATION_TYPE":"U","NORAD_CAT_ID":17567,"ELEMENT_SET_NO":999,"REV_AT_EPOCH":8721,"BSTAR":6.4631e-5,"MEAN_MOTION_DOT":5.91e-6,"MEAN_MOTION_DDOT":0},{"OBJECT_NAME":"COSMOS 1833","OBJECT_ID":"1987-027A","EPOCH":"2026-03-03T20:14:09.061152","MEAN_MOTION":14.13056076,"ECCENTRICITY":0.00245349,"INCLINATION":70.9233,"RA_OF_ASC_NODE":338.3056,"ARG_OF_PERICENTER":222.6312,"MEAN_ANOMALY":137.2906,"EPHEMERIS_TYPE":0,"CLASSIFICATION_TYPE":"U","NORAD_CAT_ID":17589,"ELEMENT_SET_NO":999,"REV_AT_EPOCH":949,"BSTAR":-4.4695076e-5,"MEAN_MOTION_DOT":-1.32e-6,"MEAN_MOTION_DDOT":0},{"OBJECT_NAME":"SL-16 R/B","OBJECT_ID":"1987-027B","EPOCH":"2026-03-03T20:00:37.890432","MEAN_MOTION":14.17166371,"ECCENTRICITY":0.00037003,"INCLINATION":71.0018,"RA_OF_ASC_NODE":288.8359,"ARG_OF_PERICENTER":155.3712,"MEAN_ANOMALY":204.7589,"EPHEMERIS_TYPE":0,"CLASSIFICATION_TYPE":"U","NORAD_CAT_ID":17590,"ELEMENT_SET_NO":999,"REV_AT_EPOCH":1451,"BSTAR":-6.3544694e-5,"MEAN_MOTION_DOT":-1.76e-6,"MEAN_MOTION_DDOT":0},{"OBJECT_NAME":"SL-14 R/B","OBJECT_ID":"1987-038B","EPOCH":"2026-03-03T16:55:55.107552","MEAN_MOTION":14.85363133,"ECCENTRICITY":0.00191593,"INCLINATION":82.5013,"RA_OF_ASC_NODE":302.4453,"ARG_OF_PERICENTER":179.9345,"MEAN_ANOMALY":180.1877,"EPHEMERIS_TYPE":0,"CLASSIFICATION_TYPE":"U","NORAD_CAT_ID":17912,"ELEMENT_SET_NO":999,"REV_AT_EPOCH":7834,"BSTAR":6.2505785e-5,"MEAN_MOTION_DOT":5.63e-6,"MEAN_MOTION_DDOT":0},{"OBJECT_NAME":"COSMOS 1844","OBJECT_ID":"1987-041A","EPOCH":"2026-03-03T22:55:33.902400","MEAN_MOTION":14.14553266,"ECCENTRICITY":0.00296875,"INCLINATION":70.8994,"RA_OF_ASC_NODE":46.2703,"ARG_OF_PERICENTER":26.4833,"MEAN_ANOMALY":333.7798,"EPHEMERIS_TYPE":0,"CLASSIFICATION_TYPE":"U","NORAD_CAT_ID":17973,"ELEMENT_SET_NO":999,"REV_AT_EPOCH":277,"BSTAR":-1.1352186e-5,"MEAN_MOTION_DOT":-7.0e-7,"MEAN_MOTION_DDOT":0},{"OBJECT_NAME":"SL-14 R/B","OBJECT_ID":"1987-055B","EPOCH":"2026-03-03T19:38:12.679584","MEAN_MOTION":14.85621278,"ECCENTRICITY":0.00216338,"INCLINATION":82.5029,"RA_OF_ASC_NODE":354.5633,"ARG_OF_PERICENTER":36.5793,"MEAN_ANOMALY":323.6895,"EPHEMERIS_TYPE":0,"CLASSIFICATION_TYPE":"U","NORAD_CAT_ID":18153,"ELEMENT_SET_NO":999,"REV_AT_EPOCH":6906,"BSTAR":9.167254e-5,"MEAN_MOTION_DOT":8.21e-6,"MEAN_MOTION_DDOT":0},{"OBJECT_NAME":"COSMOS 1867","OBJECT_ID":"1987-060A","EPOCH":"2026-03-03T20:27:22.614048","MEAN_MOTION":14.31502019,"ECCENTRICITY":0.0014401,"INCLINATION":65.0119,"RA_OF_ASC_NODE":323.0524,"ARG_OF_PERICENTER":278.2606,"MEAN_ANOMALY":81.6846,"EPHEMERIS_TYPE":0,"CLASSIFICATION_TYPE":"U","NORAD_CAT_ID":18187,"ELEMENT_SET_NO":999,"REV_AT_EPOCH":1910,"BSTAR":4.568863e-5,"MEAN_MOTION_DOT":2.1e-7,"MEAN_MOTION_DDOT":0},{"OBJECT_NAME":"SL-14 R/B","OBJECT_ID":"1988-001B","EPOCH":"2026-03-03T19:30:50.658912","MEAN_MOTION":14.85519361,"ECCENTRICITY":0.0016618,"INCLINATION":82.5143,"RA_OF_ASC_NODE":200.8861,"ARG_OF_PERICENTER":256.7672,"MEAN_ANOMALY":103.169,"EPHEMERIS_TYPE":0,"CLASSIFICATION_TYPE":"U","NORAD_CAT_ID":18749,"ELEMENT_SET_NO":999,"REV_AT_EPOCH":4115,"BSTAR":9.06743e-5,"MEAN_MOTION_DOT":8.08e-6,"MEAN_MOTION_DDOT":0},{"OBJECT_NAME":"COSMOS 1933","OBJECT_ID":"1988-020A","EPOCH":"2026-03-03T20:34:30.264672","MEAN_MOTION":15.17921529,"ECCENTRICITY":0.00033893,"INCLINATION":82.5095,"RA_OF_ASC_NODE":256.6845,"ARG_OF_PERICENTER":204.7221,"MEAN_ANOMALY":155.3851,"EPHEMERIS_TYPE":0,"CLASSIFICATION_TYPE":"U","NORAD_CAT_ID":18958,"ELEMENT_SET_NO":999,"REV_AT_EPOCH":4934,"BSTAR":0.00027688349,"MEAN_MOTION_DOT":5.645e-5,"MEAN_MOTION_DDOT":0},{"OBJECT_NAME":"SL-3 R/B","OBJECT_ID":"1988-032B","EPOCH":"2026-03-03T22:31:59.634624","MEAN_MOTION":15.19827326,"ECCENTRICITY":0.00241137,"INCLINATION":97.518,"RA_OF_ASC_NODE":46.2103,"ARG_OF_PERICENTER":252.9858,"MEAN_ANOMALY":106.8734,"EPHEMERIS_TYPE":0,"CLASSIFICATION_TYPE":"U","NORAD_CAT_ID":19046,"ELEMENT_SET_NO":999,"REV_AT_EPOCH":5123,"BSTAR":0.00036042745,"MEAN_MOTION_DOT":7.715e-5,"MEAN_MOTION_DDOT":0},{"OBJECT_NAME":"SL-16 R/B","OBJECT_ID":"1988-039B","EPOCH":"2026-03-03T11:56:44.899296","MEAN_MOTION":14.19615601,"ECCENTRICITY":0.00224123,"INCLINATION":71.013,"RA_OF_ASC_NODE":81.6418,"ARG_OF_PERICENTER":343.4793,"MEAN_ANOMALY":16.5599,"EPHEMERIS_TYPE":0,"CLASSIFICATION_TYPE":"U","NORAD_CAT_ID":19120,"ELEMENT_SET_NO":999,"REV_AT_EPOCH":95750,"BSTAR":6.0980234e-5,"MEAN_MOTION_DOT":8.1e-7,"MEAN_MOTION_DDOT":0}]
